NORAD_CAT_ID,OBJECT_NAME,OBJECT_TYPE,EPOCH,MEAN_MOTION,ECCENTRICITY,INCLINATION,RA_OF_ASC_NODE,ARG_OF_PERICENTER,MEAN_ANOMALY,BSTAR,MEAN_MOTION_DOT,MEAN_MOTION_DDOT,TLE_LINE0,TLE_LINE1,TLE_LINE2,SEMIMAJOR_AXIS,PERIOD,APOGEE,PERIGEE,DECAYED
55780.0,STARLINK-5819,PAYLOAD,2023-11-02 04:46:07,14.98337453,0.000307,70.0001,228.845,268.9425,91.1383,0.00012367,1.383e-05,0.0,0 STARLINK-5819,1 55780U 23028AR  23306.19869382  .00001383  00000-0  12367-3 0  9997,2 55780  70.0001 228.8450 0003070 268.9425  91.1383 14.98337453 37945,6950.17,96.107,574.169,569.901,0.0
55780.0,STARLINK-5819,PAYLOAD,2023-11-02 12:46:48,14.98326106,0.0002552,70.0019,228.0036,273.2206,86.8661,9.0084e-05,9.82e-06,0.0,0 STARLINK-5819,1 55780U 23028AR  23306.53250305  .00000982  00000-0  90084-4 0  9991,2 55780  70.0019 228.0036 0002552 273.2206  86.8661 14.98326106 37994,6950.205,96.107,573.844,570.296,0.0
55780.0,STARLINK-5819,PAYLOAD,2023-11-02 20:47:28,14.98326574,0.0002929,70.0011,227.1619,269.921,90.1614,8.1957e-05,8.85e-06,0.0,0 STARLINK-5819,1 55780U 23028AR  23306.86630132  .00000885  00000-0  81957-4 0  9998,2 55780  70.0011 227.1619 0002929 269.9210  90.1614 14.98326574 38040,6950.203,96.107,574.104,570.033,0.0
55780.0,STARLINK-5819,PAYLOAD,2023-11-03 04:48:08,14.98336663,0.0002874,70.0005,226.3199,266.9836,93.0994,9.2046e-05,1.006e-05,0.0,0 STARLINK-5819,1 55780U 23028AR  23307.20009440  .00001006  00000-0  92046-4 0  9996,2 55780  70.0005 226.3199 0002874 266.9836  93.0994 14.98336663 38095,6950.172,96.107,574.035,570.04,0.0
55780.0,STARLINK-5819,PAYLOAD,2023-11-03 19:13:21,14.98331508,0.0002782,70.0014,224.8075,264.7059,95.3783,3.7097e-05,3.5e-06,0.0,0 STARLINK-5819,1 55780U 23028AR  23307.80093804  .00000350  00000-0  37097-4 0  9995,2 55780  70.0014 224.8075 0002782 264.7059  95.3783 14.98331508 38186,6950.188,96.107,573.987,570.12,0.0
55780.0,STARLINK-5819,PAYLOAD,2023-11-03 22:25:37,14.98331413,0.0002789,70.0013,224.4707,263.9487,96.1354,2.0107e-05,1.47e-06,0.0,0 STARLINK-5819,1 55780U 23028AR  23307.93445821  .00000147  00000-0  20107-4 0  9997,2 55780  70.0013 224.4707 0002789 263.9487  96.1354 14.98331413 38207,6950.189,96.107,573.992,570.115,0.0
55780.0,STARLINK-5819,PAYLOAD,2023-11-04 04:50:09,14.98332377,0.0002784,70.0013,223.7973,265.3103,94.7738,3.5553e-05,3.31e-06,0.0,0 STARLINK-5819,1 55780U 23028AR  23308.20149714  .00000331  00000-0  35553-4 0  9996,2 55780  70.0013 223.7973 0002784 265.3103  94.7738 14.98332377 38244,6950.186,96.107,573.985,570.116,0.0
55780.0,STARLINK-5819,PAYLOAD,2023-11-04 20:51:30,14.98328943,0.0002718,70.0018,222.1139,266.7143,93.3705,3.6332e-05,3.41e-06,0.0,0 STARLINK-5819,1 55780U 23028AR  23308.86909864  .00000341  00000-0  36332-4 0  9995,2 55780  70.0018 222.1139 0002718 266.7143  93.3705 14.98328943 38346,6950.196,96.107,573.95,570.172,0.0
55780.0,STARLINK-5819,PAYLOAD,2023-11-04 22:27:38,14.98327208,0.0002792,70.0016,221.9458,266.0186,94.0654,7.2162e-05,7.68e-06,0.0,0 STARLINK-5819,1 55780U 23028AR  23308.93585859  .00000768  00000-0  72162-4 0  9991,2 55780  70.0016 221.9458 0002792 266.0186  94.0654 14.98327208 38352,6950.202,96.107,574.007,570.126,0.0
55780.0,STARLINK-5819,PAYLOAD,2023-11-05 03:16:01,14.9833602,0.0002448,70.0017,221.4401,258.2285,101.8599,8.8233e-05,9.6e-06,0.0,0 STARLINK-5819,1 55780U 23028AR  23309.13613221  .00000960  00000-0  88233-4 0  9999,2 55780  70.0017 221.4401 0002448 258.2285 101.8599 14.98336020 38387,6950.174,96.107,573.741,570.338,0.0
55780.0,STARLINK-5819,PAYLOAD,2023-11-05 11:16:41,14.9836628,0.0002575,70.0016,220.5981,268.0045,92.082,-0.00036466,-4.445e-05,0.0,0 STARLINK-5819,1 55780U 23028AR  23309.46991988 -.00004445  00000-0 -36466-3 0  9998,2 55780  70.0016 220.5981 0002575 268.0045  92.0820 14.98366280 38438,6950.081,96.105,573.735,570.156,0.0
55780.0,STARLINK-5819,PAYLOAD,2023-11-05 19:17:21,14.98342572,0.0002781,70.0006,219.7563,267.8342,92.2499,0.00012691,1.422e-05,0.0,0 STARLINK-5819,1 55780U 23028AR  23309.80372249  .00001422  00000-0  12691-3 0  9993,2 55780  70.0006 219.7563 0002781 267.8342  92.2499 14.98342572 38486,6950.154,96.106,573.952,570.086,0.0
55780.0,STARLINK-5819,PAYLOAD,2023-11-05 22:29:37,14.98343662,0.0002798,70.0002,219.4175,273.991,86.0929,0.00019356,2.218e-05,0.0,0 STARLINK-5819,1 55780U 23028AR  23309.93723900  .00002218  00000-0  19356-3 0  9990,2 55780  70.0002 219.4175 0002798 273.9910  86.0929 14.98343662 38508,6950.151,96.106,573.96,570.071,0.0
55780.0,STARLINK-5819,PAYLOAD,2023-11-06 03:17:59,14.98363761,0.0002562,70.001,218.9159,255.7218,104.3657,0.00034891,4.076e-05,0.0,0 STARLINK-5819,1 55780U 23028AR  23310.13749920  .00004076  00000-0  34891-3 0  9999,2 55780  70.0010 218.9159 0002562 255.7218 104.3657 14.98363761 38538,6950.088,96.105,573.734,570.173,0.0
55780.0,STARLINK-5819,PAYLOAD,2023-11-06 11:18:42,14.98337688,0.0002128,70.0015,218.0734,285.1971,74.8952,5.8776e-05,6.09e-06,0.0,0 STARLINK-5819,1 55780U 23028AR  23310.47132174  .00000609  00000-0  58776-4 0  9990,2 55780  70.0015 218.0734 0002128 285.1971  74.8952 14.98337688 38587,6950.169,96.107,573.513,570.555,0.0
55780.0,STARLINK-5819,PAYLOAD,2023-11-06 19:19:25,14.98304243,0.0002858,70.0001,217.2321,270.3033,89.7799,-0.00041778,-5.071e-05,0.0,0 STARLINK-5819,1 55780U 23028AR  23310.80515369 -.00005071  00000-0 -41778-3 0  9991,2 55780  70.0001 217.2321 0002858 270.3033  89.7799 14.98304243 38631,6950.273,96.109,574.124,570.151,0.0
55780.0,STARLINK-5819,PAYLOAD,2023-11-06 22:31:41,14.98302918,0.0002535,70.0,216.8937,262.8457,97.2413,-0.00035337,-4.304e-05,0.0,0 STARLINK-5819,1 55780U 23028AR  23310.93867421 -.00004304  00000-0 -35337-3 0  9996,2 55780  70.0000 216.8937 0002535 262.8457  97.2413 14.98302918 38652,6950.277,96.109,573.904,570.38,0.0
55780.0,STARLINK-5819,PAYLOAD,2023-11-07 03:20:05,14.98312016,0.000283,70.0002,216.39,268.9756,91.1079,-0.00027031,-3.315e-05,0.0,0 STARLINK-5819,1 55780U 23028AR  23311.13894869 -.00003315  00000-0 -27031-3 0  9998,2 55780  70.0002 216.3900 0002830 268.9756  91.1079 14.98312016 38680,6950.249,96.108,574.08,570.147,0.0
55780.0,STARLINK-5819,PAYLOAD,2023-11-07 11:20:44,14.98323016,0.0002916,70.0015,215.5471,273.7317,86.3509,-0.0002109,-2.608e-05,0.0,0 STARLINK-5819,1 55780U 23028AR  23311.47274230 -.00002608  00000-0 -21090-3 0  9992,2 55780  70.0015 215.5471 0002916 273.7317  86.3509 14.98323016 38732,6950.214,96.107,574.106,570.053,0.0
55780.0,STARLINK-5819,PAYLOAD,2023-11-08 03:22:04,14.98343012,0.0002559,70.0005,213.8672,259.8335,100.2535,-0.00013805,-1.74e-05,0.0,0 STARLINK-5819,1 55780U 23028AR  23312.14032848 -.00001740  00000-0 -13805-3 0  9995,2 55780  70.0005 213.8672 0002559 259.8335 100.2535 14.98343012 38837,6950.153,96.106,573.796,570.239,0.0
55780.0,STARLINK-5819,PAYLOAD,2023-11-08 19:23:25,14.98309143,0.0002799,70.0011,212.1839,278.9989,81.0853,0.00036805,4.299e-05,0.0,0 STARLINK-5819,1 55780U 23028AR  23312.80793865  .00004299  00000-0  36805-3 0  9996,2 55780  70.0011 212.1839 0002799 278.9989  81.0853 14.98309143 38931,6950.257,96.108,574.068,570.177,0.0
55780.0,STARLINK-5819,PAYLOAD,2023-11-08 22:35:42,14.98311643,0.0002698,70.0013,211.8472,280.309,79.7764,0.00037827,4.421e-05,0.0,0 STARLINK-5819,1 55780U 23028AR  23312.94145883  .00004421  00000-0  37827-3 0  9994,2 55780  70.0013 211.8472 0002698 280.3090  79.7764 14.98311643 38955,6950.25,96.108,573.99,570.239,0.0
55780.0,STARLINK-5819,PAYLOAD,2023-11-09 03:24:06,14.98317877,0.0002785,70.0012,211.3436,275.1028,84.9814,0.00033994,3.964e-05,0.0,0 STARLINK-5819,1 55780U 23028AR  23313.14173717  .00003964  00000-0  33994-3 0  9996,2 55780  70.0012 211.3436 0002785 275.1028  84.9814 14.98317877 38981,6950.23,96.108,574.031,570.16,0.0
55780.0,STARLINK-5819,PAYLOAD,2023-11-09 22:37:42,14.98328,0.0002727,70.0016,209.3244,262.5748,97.5101,0.00010921,1.21e-05,0.0,0 STARLINK-5819,1 55780U 23028AR  23313.94285824  .00001210  00000-0  10921-3 0  9994,2 55780  70.0016 209.3244 0002727 262.5748  97.5101 14.98328000 39108,6950.199,96.107,573.959,570.169,0.0
55780.0,STARLINK-5819,PAYLOAD,2023-11-10 03:26:06,14.98332683,0.0002847,70.0007,208.8162,271.734,88.3493,0.00011444,1.273e-05,0.0,0 STARLINK-5819,1 55780U 23028AR  23314.14313509  .00001273  00000-0  11444-3 0  9999,2 55780  70.0007 208.8162 0002847 271.7340  88.3493 14.98332683 39131,6950.185,96.107,574.028,570.071,0.0
55780.0,STARLINK-5819,PAYLOAD,2023-11-10 19:27:27,14.98331457,0.0002598,70.0012,207.1338,263.486,96.6003,8.7119e-07,-8.3e-07,0.0,0 STARLINK-5819,1 55780U 23028AR  23314.81073745 -.00000083  00000-0  87119-6 0  9992,2 55780  70.0012 207.1338 0002598 263.4860  96.6003 14.98331457 39230,6950.188,96.107,573.859,570.248,0.0
55780.0,STARLINK-5819,PAYLOAD,2023-11-11 03:28:07,14.98333128,0.0002724,70.0005,206.2914,279.2683,80.8167,1.7768e-05,1.19e-06,0.0,0 STARLINK-5819,1 55780U 23028AR  23315.14453694  .00000119  00000-0  17768-4 0  9994,2 55780  70.0005 206.2914 0002724 279.2683  80.8167 14.98333128 39289,6950.183,96.107,573.941,570.155,0.0
55780.0,STARLINK-5819,PAYLOAD,2023-11-11 21:05:36,14.98332285,0.0002761,70.0003,204.4399,265.6444,94.4399,1.5417e-05,9.1e-07,0.0,0 STARLINK-5819,1 55780U 23028AR  23315.87889518  .00000091  00000-0  15417-4 0  9990,2 55780  70.0003 204.4399 0002761 265.6444  94.4399 14.98332285 39392,6950.186,96.107,573.97,570.132,0.0
55780.0,STARLINK-5819,PAYLOAD,2023-11-12 01:54:00,14.98332104,0.0002559,70.0005,203.9351,256.0768,104.0107,1.3918e-05,7.3e-07,0.0,0 STARLINK-5819,1 55780U 23028AR  23316.07917493  .00000073  00000-0  13918-4 0  9991,2 55780  70.0005 203.9351 0002559 256.0768 104.0107 14.98332104 39423,6950.186,96.107,573.83,570.273,0.0
55780.0,STARLINK-5819,PAYLOAD,2023-11-12 19:31:29,14.98329138,0.0002689,70.0003,202.0837,264.8503,95.2349,4.8589e-05,4.87e-06,0.0,0 STARLINK-5819,1 55780U 23028AR  23316.81353520  .00000487  00000-0  48589-4 0  9999,2 55780  70.0003 202.0837 0002689 264.8503  95.2349 14.98329138 39532,6950.196,96.107,573.929,570.192,0.0
